ORBCOMM-X               
1 21576U 91050C   24347.45326185  .00000725  00000+0  22964-3 0  9999
2 21576  98.3700  51.6597 0004338  45.5089 314.6455 14.42970902755184
ORBCOMM FM01            
1 23545U 95017A   24347.48615768  .00008102  00000+0  93620-3 0  9999
2 23545  69.9631 178.3492 0007001 257.1063 102.9307 14.85886065584731
ORBCOMM FM02            
1 23546U 95017B   24347.01603895  .00010606  00000+0  12230-2 0  9996
2 23546  69.9655 199.2089 0008869 252.2040 107.8145 14.85846507584300
ORBCOMM FM08            
1 25112U 97084A   24347.75487901  .00002557  00000+0  77380-3 0  9996
2 25112  45.0117 182.0503 0005871  34.3610 325.7620 14.44534876414570
ORBCOMM FM10            
1 25113U 97084B   24347.29542253  .00002429  00000+0  73969-3 0  9995
2 25113  45.0132 186.3272 0003671 354.8727   5.2085 14.44376394589480
ORBCOMM FM11            
1 25114U 97084C   24347.75341769  .00002271  00000+0  69749-3 0  9992
2 25114  45.0117 184.4462 0004557 358.0269   2.0563 14.44156350414543
ORBCOMM FM12            
1 25115U 97084D   24347.57935525  .00002369  00000+0  72584-3 0  9991
2 25115  45.0124 185.0388 0003521 357.0782   3.0048 14.44159480414282
ORBCOMM FM09            
1 25116U 97084E   24347.73615720  .00002011  00000+0  62332-3 0  9996
2 25116  45.0127 185.0603 0004716 338.7601  21.3053 14.44081491414543
