<?xml version="1.0" encoding="UTF-8"?>
<ndm xmlns:xsi="http://www.w3.org/2001/XMLSchema-instance" xsi:noNamespaceSchemaLocation="https://sanaregistry.org/r/ndmxml_unqualified/ndmxml-2.0.0-master-2.0.xsd">
<omm id="CCSDS_OMM_VERS" version="2.0">
<header><CREATION_DATE/><ORIGINATOR/></header><body><segment><metadata><OBJECT_NAME>ORBCOMM-X</OBJECT_NAME><OBJECT_ID>1991-050C</OBJECT_ID><CENTER_NAME>EARTH</CENTER_NAME><REF_FRAME>TEME</REF_FRAME><TIME_SYSTEM>UTC</TIME_SYSTEM><MEAN_ELEMENT_THEORY>SGP4</MEAN_ELEMENT_THEORY></metadata><data><meanElements><EPOCH>2024-12-12T10:52:41.823840</EPOCH><MEAN_MOTION>14.42970902</MEAN_MOTION><ECCENTRICITY>.0004338</ECCENTRICITY><INCLINATION>98.3700</INCLINATION><RA_OF_ASC_NODE>51.6597</RA_OF_ASC_NODE><ARG_OF_PERICENTER>45.5089</ARG_OF_PERICENTER><MEAN_ANOMALY>314.6455</MEAN_ANOMALY></meanElements><tleParameters><EPHEMERIS_TYPE>0</EPHEMERIS_TYPE><CLASSIFICATION_TYPE>U</CLASSIFICATION_TYPE><NORAD_CAT_ID>21576</NORAD_CAT_ID><ELEMENT_SET_NO>999</ELEMENT_SET_NO><REV_AT_EPOCH>75518</REV_AT_EPOCH><BSTAR>.22964E-3</BSTAR><MEAN_MOTION_DOT>.725E-5</MEAN_MOTION_DOT><MEAN_MOTION_DDOT>0</MEAN_MOTION_DDOT></tleParameters></data></segment></body></omm>
<omm id="CCSDS_OMM_VERS" version="2.0">
<header><CREATION_DATE/><ORIGINATOR/></header><body><segment><metadata><OBJECT_NAME>ORBCOMM FM01</OBJECT_NAME><OBJECT_ID>1995-017A</OBJECT_ID><CENTER_NAME>EARTH</CENTER_NAME><REF_FRAME>TEME</REF_FRAME><TIME_SYSTEM>UTC</TIME_SYSTEM><MEAN_ELEMENT_THEORY>SGP4</MEAN_ELEMENT_THEORY></metadata><data><meanElements><EPOCH>2024-12-12T11:40:04.023552</EPOCH><MEAN_MOTION>14.85886065</MEAN_MOTION><ECCENTRICITY>.0007001</ECCENTRICITY><INCLINATION>69.9631</INCLINATION><RA_OF_ASC_NODE>178.3492</RA_OF_ASC_NODE><ARG_OF_PERICENTER>257.1063</ARG_OF_PERICENTER><MEAN_ANOMALY>102.9307</MEAN_ANOMALY></meanElements><tleParameters><EPHEMERIS_TYPE>0</EPHEMERIS_TYPE><CLASSIFICATION_TYPE>U</CLASSIFICATION_TYPE><NORAD_CAT_ID>23545</NORAD_CAT_ID><ELEMENT_SET_NO>999</ELEMENT_SET_NO><REV_AT_EPOCH>58473</REV_AT_EPOCH><BSTAR>.9362E-3</BSTAR><MEAN_MOTION_DOT>.8102E-4</MEAN_MOTION_DOT><MEAN_MOTION_DDOT>0</MEAN_MOTION_DDOT></tleParameters></data></segment></body></omm>
<omm id="CCSDS_OMM_VERS" version="2.0">
<header><CREATION_DATE/><ORIGINATOR/></header><body><segment><metadata><OBJECT_NAME>ORBCOMM FM02</OBJECT_NAME><OBJECT_ID>1995-017B</OBJECT_ID><CENTER_NAME>EARTH</CENTER_NAME><REF_FRAME>TEME</REF_FRAME><TIME_SYSTEM>UTC</TIME_SYSTEM><MEAN_ELEMENT_THEORY>SGP4</MEAN_ELEMENT_THEORY></metadata><data><meanElements><EPOCH>2024-12-12T00:23:05.765280</EPOCH><MEAN_MOTION>14.85846507</MEAN_MOTION><ECCENTRICITY>.0008869</ECCENTRICITY><INCLINATION>69.9655</INCLINATION><RA_OF_ASC_NODE>199.2089</RA_OF_ASC_NODE><ARG_OF_PERICENTER>252.2040</ARG_OF_PERICENTER><MEAN_ANOMALY>107.8145</MEAN_ANOMALY></meanElements><tleParameters><EPHEMERIS_TYPE>0</EPHEMERIS_TYPE><CLASSIFICATION_TYPE>U</CLASSIFICATION_TYPE><NORAD_CAT_ID>23546</NORAD_CAT_ID><ELEMENT_SET_NO>999</ELEMENT_SET_NO><REV_AT_EPOCH>58430</REV_AT_EPOCH><BSTAR>.1223E-2</BSTAR><MEAN_MOTION_DOT>.10606E-3</MEAN_MOTION_DOT><MEAN_MOTION_DDOT>0</MEAN_MOTION_DDOT></tleParameters></data></segment></body></omm>
<omm id="CCSDS_OMM_VERS" version="2.0">
<header><CREATION_DATE/><ORIGINATOR/></header><body><segment><metadata><OBJECT_NAME>ORBCOMM FM08</OBJECT_NAME><OBJECT_ID>1997-084A</OBJECT_ID><CENTER_NAME>EARTH</CENTER_NAME><REF_FRAME>TEME</REF_FRAME><TIME_SYSTEM>UTC</TIME_SYSTEM><MEAN_ELEMENT_THEORY>SGP4</MEAN_ELEMENT_THEORY></metadata><data><meanElements><EPOCH>2024-12-12T18:07:01.546464</EPOCH><MEAN_MOTION>14.44534876</MEAN_MOTION><ECCENTRICITY>.0005871</ECCENTRICITY><INCLINATION>45.0117</INCLINATION><RA_OF_ASC_NODE>182.0503</RA_OF_ASC_NODE><ARG_OF_PERICENTER>34.3610</ARG_OF_PERICENTER><MEAN_ANOMALY>325.7620</MEAN_ANOMALY></meanElements><tleParameters><EPHEMERIS_TYPE>0</EPHEMERIS_TYPE><CLASSIFICATION_TYPE>U</CLASSIFICATION_TYPE><NORAD_CAT_ID>25112</NORAD_CAT_ID><ELEMENT_SET_NO>999</ELEMENT_SET_NO><REV_AT_EPOCH>41457</REV_AT_EPOCH><BSTAR>.7738E-3</BSTAR><MEAN_MOTION_DOT>.2557E-4</MEAN_MOTION_DOT><MEAN_MOTION_DDOT>0</MEAN_MOTION_DDOT></tleParameters></data></segment></body></omm>
<omm id="CCSDS_OMM_VERS" version="2.0">
<header><CREATION_DATE/><ORIGINATOR/></header><body><segment><metadata><OBJECT_NAME>ORBCOMM FM10</OBJECT_NAME><OBJECT_ID>1997-084B</OBJECT_ID><CENTER_NAME>EARTH</CENTER_NAME><REF_FRAME>TEME</REF_FRAME><TIME_SYSTEM>UTC</TIME_SYSTEM><MEAN_ELEMENT_THEORY>SGP4</MEAN_ELEMENT_THEORY></metadata><data><meanElements><EPOCH>2024-12-12T07:05:24.506592</EPOCH><MEAN_MOTION>14.44376394</MEAN_MOTION><ECCENTRICITY>.0003671</ECCENTRICITY><INCLINATION>45.0132</INCLINATION><RA_OF_ASC_NODE>186.3272</RA_OF_ASC_NODE><ARG_OF_PERICENTER>354.8727</ARG_OF_PERICENTER><MEAN_ANOMALY>5.2085</MEAN_ANOMALY></meanElements><tleParameters><EPHEMERIS_TYPE>0</EPHEMERIS_TYPE><CLASSIFICATION_TYPE>U</CLASSIFICATION_TYPE><NORAD_CAT_ID>25113</NORAD_CAT_ID><ELEMENT_SET_NO>999</ELEMENT_SET_NO><REV_AT_EPOCH>58948</REV_AT_EPOCH><BSTAR>.73969E-3</BSTAR><MEAN_MOTION_DOT>.2429E-4</MEAN_MOTION_DOT><MEAN_MOTION_DDOT>0</MEAN_MOTION_DDOT></tleParameters></data></segment></body></omm>
<omm id="CCSDS_OMM_VERS" version="2.0">
<header><CREATION_DATE/><ORIGINATOR/></header><body><segment><metadata><OBJECT_NAME>ORBCOMM FM11</OBJECT_NAME><OBJECT_ID>1997-084C</OBJECT_ID><CENTER_NAME>EARTH</CENTER_NAME><REF_FRAME>TEME</REF_FRAME><TIME_SYSTEM>UTC</TIME_SYSTEM><MEAN_ELEMENT_THEORY>SGP4</MEAN_ELEMENT_THEORY></metadata><data><meanElements><EPOCH>2024-12-12T18:04:55.288416</EPOCH><MEAN_MOTION>14.44156350</MEAN_MOTION><ECCENTRICITY>.0004557</ECCENTRICITY><INCLINATION>45.0117</INCLINATION><RA_OF_ASC_NODE>184.4462</RA_OF_ASC_NODE><ARG_OF_PERICENTER>358.0269</ARG_OF_PERICENTER><MEAN_ANOMALY>2.0563</MEAN_ANOMALY></meanElements><tleParameters><EPHEMERIS_TYPE>0</EPHEMERIS_TYPE><CLASSIFICATION_TYPE>U</CLASSIFICATION_TYPE><NORAD_CAT_ID>25114</NORAD_CAT_ID><ELEMENT_SET_NO>999</ELEMENT_SET_NO><REV_AT_EPOCH>41454</REV_AT_EPOCH><BSTAR>.69749E-3</BSTAR><MEAN_MOTION_DOT>.2271E-4</MEAN_MOTION_DOT><MEAN_MOTION_DDOT>0</MEAN_MOTION_DDOT></tleParameters></data></segment></body></omm>
<omm id="CCSDS_OMM_VERS" version="2.0">
<header><CREATION_DATE/><ORIGINATOR/></header><body><segment><metadata><OBJECT_NAME>ORBCOMM FM12</OBJECT_NAME><OBJECT_ID>1997-084D</OBJECT_ID><CENTER_NAME>EARTH</CENTER_NAME><REF_FRAME>TEME</REF_FRAME><TIME_SYSTEM>UTC</TIME_SYSTEM><MEAN_ELEMENT_THEORY>SGP4</MEAN_ELEMENT_THEORY></metadata><data><meanElements><EPOCH>2024-12-12T13:54:16.293600</EPOCH><MEAN_MOTION>14.44159480</MEAN_MOTION><ECCENTRICITY>.0003521</ECCENTRICITY><INCLINATION>45.0124</INCLINATION><RA_OF_ASC_NODE>185.0388</RA_OF_ASC_NODE><ARG_OF_PERICENTER>357.0782</ARG_OF_PERICENTER><MEAN_ANOMALY>3.0048</MEAN_ANOMALY></meanElements><tleParameters><EPHEMERIS_TYPE>0</EPHEMERIS_TYPE><CLASSIFICATION_TYPE>U</CLASSIFICATION_TYPE><NORAD_CAT_ID>25115</NORAD_CAT_ID><ELEMENT_SET_NO>999</ELEMENT_SET_NO><REV_AT_EPOCH>41428</REV_AT_EPOCH><BSTAR>.72584E-3</BSTAR><MEAN_MOTION_DOT>.2369E-4</MEAN_MOTION_DOT><MEAN_MOTION_DDOT>0</MEAN_MOTION_DDOT></tleParameters></data></segment></body></omm>
<omm id="CCSDS_OMM_VERS" version="2.0">
<header><CREATION_DATE/><ORIGINATOR/></header><body><segment><metadata><OBJECT_NAME>ORBCOMM FM09</OBJECT_NAME><OBJECT_ID>1997-084E</OBJECT_ID><CENTER_NAME>EARTH</CENTER_NAME><REF_FRAME>TEME</REF_FRAME><TIME_SYSTEM>UTC</TIME_SYSTEM><MEAN_ELEMENT_THEORY>SGP4</MEAN_ELEMENT_THEORY></metadata><data><meanElements><EPOCH>2024-12-12T17:40:03.982080</EPOCH><MEAN_MOTION>14.44081491</MEAN_MOTION><ECCENTRICITY>.0004716</ECCENTRICITY><INCLINATION>45.0127</INCLINATION><RA_OF_ASC_NODE>185.0603</RA_OF_ASC_NODE><ARG_OF_PERICENTER>338.7601</ARG_OF_PERICENTER><MEAN_ANOMALY>21.3053</MEAN_ANOMALY></meanElements><tleParameters><EPHEMERIS_TYPE>0</EPHEMERIS_TYPE><CLASSIFICATION_TYPE>U</CLASSIFICATION_TYPE><NORAD_CAT_ID>25116</NORAD_CAT_ID><ELEMENT_SET_NO>999</ELEMENT_SET_NO><REV_AT_EPOCH>41454</REV_AT_EPOCH><BSTAR>.62332E-3</BSTAR><MEAN_MOTION_DOT>.2011E-4</MEAN_MOTION_DOT><MEAN_MOTION_DDOT>0</MEAN_MOTION_DDOT></tleParameters></data></segment></body></omm>

</ndm>
